[{"OBJECT_NAME":"STARLINK-5992","OBJECT_ID":"2023-058M","EPOCH":"2026-03-09T22:30:47.986560","MEAN_MOTION":15.05647255,"ECCENTRICITY":0.00019866,"INCLINATION":97.6048,"RA_OF_ASC_NODE":71.457,"ARG_OF_PERICENTER":91.4204,"MEAN_ANOMALY":268.725,"EPHEMERIS_TYPE":0,"CLASSIFICATION_TYPE":"U","NORAD_CAT_ID":56328,"ELEMENT_SET_NO":999,"REV_AT_EPOCH":15823,"BSTAR":2.4584758e-5,"MEAN_MOTION_DOT":2.94e-6,"MEAN_MOTION_DDOT":0},{"OBJECT_NAME":"DELTA 1 R\/B(2)","OBJECT_ID":"1981-070E","EPOCH":"2026-03-06T05:47:49.385184","MEAN_MOTION":3.53060397,"ECCENTRICITY":0.62178718,"INCLINATION":90.945,"RA_OF_ASC_NODE":47.7077,"ARG_OF_PERICENTER":247.8855,"MEAN_ANOMALY":37.6571,"EPHEMERIS_TYPE":0,"CLASSIFICATION_TYPE":"U","NORAD_CAT_ID":12679,"ELEMENT_SET_NO":999,"REV_AT_EPOCH":57161,"BSTAR":0.00056599214,"MEAN_MOTION_DOT":1.51e-6,"MEAN_MOTION_DDOT":0}]
